start=new Date('2022-04-19T00:00:00.000Z').valueOf();
sats=[{"CLASSIFICATION_TYPE":"U","TIME_SYSTEM":"UTC","SEMIMAJOR_AXIS":"6925.404","OBJECT_NAME":"STARLINK-2265","GP_ID":"201580415","EPHEMERIS_TYPE":"0","LAUNCH_DATE":"2021-03-24","RA_OF_ASC_NODE":"159.7125","SITE":"AFETR","NORAD_CAT_ID":"48002","ECCENTRICITY":"0.00015310","MEAN_MOTION_DDOT":"0.0000000000000","MEAN_MOTION":"15.06382056","ELEMENT_SET_NO":"999","COUNTRY_CODE":"US","ARG_OF_PERICENTER":"62.1376","REV_AT_EPOCH":"360","MEAN_MOTION_DOT":"0.00018962","TLE_LINE1":"1 48002U 21024AB  22108.91667824  .00018962  00000-0  12891-2 0  9998","OBJECT_TYPE":"PAYLOAD","EPOCH":"2022-04-18T22:00:00.999936","CENTER_NAME":"EARTH","DECAY_DATE":null,"MEAN_ANOMALY":"317.4627","FILE":"3407402","INCLINATION":"53.0531","APOAPSIS":"548.329","BSTAR":"0.00128910000000","PERIOD":"95.593","OBJECT_ID":"2021-024AB","MEAN_ELEMENT_THEORY":"SGP4","TLE_LINE2":"2 48002  53.0531 159.7125 0001531  62.1376 317.4627 15.06382056  3603","RCS_SIZE":"LARGE","PERIAPSIS":"546.208","REF_FRAME":"TEME"},{"REF_FRAME":"TEME","PERIAPSIS":"545.851","TLE_LINE2":"2 48003  53.0558 235.2500 0001912  53.6892 306.4273 15.06412617 60336","RCS_SIZE":"LARGE","MEAN_ELEMENT_THEORY":"SGP4","OBJECT_ID":"2021-024AC","PERIOD":"95.591","INCLINATION":"53.0558","BSTAR":"0.00083394000000","APOAPSIS":"548.499","FILE":"3407402","MEAN_ANOMALY":"306.4273","CENTER_NAME":"EARTH","EPOCH":"2022-04-18T19:09:41.179392","DECAY_DATE":null,"MEAN_MOTION_DOT":"0.00012166","OBJECT_TYPE":"PAYLOAD","TLE_LINE1":"1 48003U 21024AC  22108.79839328  .00012166  00000-0  83394-3 0  9992","COUNTRY_CODE":"US","ELEMENT_SET_NO":"999","REV_AT_EPOCH":"6033","ARG_OF_PERICENTER":"53.6892","MEAN_MOTION":"15.06412617","MEAN_MOTION_DDOT":"0.0000000000000","ECCENTRICITY":"0.00019120","RA_OF_ASC_NODE":"235.2500","NORAD_CAT_ID":"48003","SITE":"AFETR","LAUNCH_DATE":"2021-03-24","EPHEMERIS_TYPE":"0","SEMIMAJOR_AXIS":"6925.310","TIME_SYSTEM":"UTC","CLASSIFICATION_TYPE":"U","GP_ID":"201580666","OBJECT_NAME":"STARLINK-2263"},{"REV_AT_EPOCH":"6075","ARG_OF_PERICENTER":"49.7721","COUNTRY_CODE":"US","ELEMENT_SET_NO":"999","MEAN_MOTION":"15.06418637","MEAN_MOTION_DDOT":"0.0000000000000","DECAY_DATE":null,"CENTER_NAME":"EARTH","EPOCH":"2022-04-18T18:36:31.533408","OBJECT_TYPE":"PAYLOAD","TLE_LINE1":"1 48005U 21024AE  22108.77536497  .00005692  00000-0  40050-3 0  9991","MEAN_MOTION_DOT":"0.00005692","LAUNCH_DATE":"2021-03-24","EPHEMERIS_TYPE":"0","GP_ID":"201579414","OBJECT_NAME":"STARLINK-2254","SEMIMAJOR_AXIS":"6925.291","TIME_SYSTEM":"UTC","CLASSIFICATION_TYPE":"U","ECCENTRICITY":"0.00020940","NORAD_CAT_ID":"48005","SITE":"AFETR","RA_OF_ASC_NODE":"205.3495","MEAN_ELEMENT_THEORY":"SGP4","OBJECT_ID":"2021-024AE","PERIOD":"95.591","REF_FRAME":"TEME","PERIAPSIS":"545.706","RCS_SIZE":"LARGE","TLE_LINE2":"2 48005  53.0533 205.3495 0002094  49.7721 310.3451 15.06418637 60757","FILE":"3407402","MEAN_ANOMALY":"310.3451","BSTAR":"0.00040050000000","APOAPSIS":"548.607","INCLINATION":"53.0533"},{"EPHEMERIS_TYPE":"0","LAUNCH_DATE":"2021-03-24","OBJECT_NAME":"STARLINK-2271","GP_ID":"201579664","CLASSIFICATION_TYPE":"U","TIME_SYSTEM":"UTC","SEMIMAJOR_AXIS":"6925.366","ECCENTRICITY":"0.00015920","SITE":"AFETR","NORAD_CAT_ID":"48008","RA_OF_ASC_NODE":"139.7047","ARG_OF_PERICENTER":"61.9870","REV_AT_EPOCH":"359","ELEMENT_SET_NO":"999","COUNTRY_CODE":"US","MEAN_MOTION_DDOT":"0.0000000000000","MEAN_MOTION":"15.06394270","DECAY_DATE":null,"CENTER_NAME":"EARTH","EPOCH":"2022-04-18T22:00:00.999936","TLE_LINE1":"1 48008U 21024AH  22108.91667824  .00025959  00000-0  17555-2 0  9990","OBJECT_TYPE":"PAYLOAD","MEAN_MOTION_DOT":"0.00025959","FILE":"3407402","MEAN_ANOMALY":"227.5602","APOAPSIS":"548.334","BSTAR":"0.00175550000000","INCLINATION":"53.0524","MEAN_ELEMENT_THEORY":"SGP4","PERIOD":"95.593","OBJECT_ID":"2021-024AH","PERIAPSIS":"546.129","REF_FRAME":"TEME","RCS_SIZE":"LARGE","TLE_LINE2":"2 48008  53.0524 139.7047 0001592  61.9870 227.5602 15.06394270  3598"},{"ECCENTRICITY":"0.00019020","SITE":"AFETR","NORAD_CAT_ID":"48009","RA_OF_ASC_NODE":"215.2679","EPHEMERIS_TYPE":"0","LAUNCH_DATE":"2021-03-24","OBJECT_NAME":"STARLINK-2153","GP_ID":"201579915","CLASSIFICATION_TYPE":"U","TIME_SYSTEM":"UTC","SEMIMAJOR_AXIS":"6925.311","DECAY_DATE":null,"CENTER_NAME":"EARTH","EPOCH":"2022-04-18T18:56:24.151488","TLE_LINE1":"1 48009U 21024AJ  22108.78916842  .00005583  00000-0  39327-3 0  9996","OBJECT_TYPE":"PAYLOAD","MEAN_MOTION_DOT":"0.00005583","ARG_OF_PERICENTER":"38.7537","REV_AT_EPOCH":"6062","ELEMENT_SET_NO":"999","COUNTRY_CODE":"US","MEAN_MOTION_DDOT":"0.0000000000000","MEAN_MOTION":"15.06412216","APOAPSIS":"548.493","BSTAR":"0.00039327000000","INCLINATION":"53.0574","FILE":"3407402","MEAN_ANOMALY":"321.3588","PERIAPSIS":"545.859","REF_FRAME":"TEME","RCS_SIZE":"LARGE","TLE_LINE2":"2 48009  53.0574 215.2679 0001902  38.7537 321.3588 15.06412216 60626","MEAN_ELEMENT_THEORY":"SGP4","PERIOD":"95.591","OBJECT_ID":"2021-024AJ"},{"REV_AT_EPOCH":"6032","ARG_OF_PERICENTER":"72.2503","COUNTRY_CODE":"US","ELEMENT_SET_NO":"999","MEAN_MOTION":"15.06407379","MEAN_MOTION_DDOT":"0.0000000000000","DECAY_DATE":null,"CENTER_NAME":"EARTH","EPOCH":"2022-04-18T16:03:55.010016","OBJECT_TYPE":"PAYLOAD","TLE_LINE1":"1 48010U 21024AK  22108.66938669  .00010206  00000-0  70290-3 0  9998","MEAN_MOTION_DOT":"0.00010206","LAUNCH_DATE":"2021-03-24","EPHEMERIS_TYPE":"0","GP_ID":"201580166","OBJECT_NAME":"STARLINK-2226","SEMIMAJOR_AXIS":"6925.326","TIME_SYSTEM":"UTC","CLASSIFICATION_TYPE":"U","ECCENTRICITY":"0.00014030","NORAD_CAT_ID":"48010","SITE":"AFETR","RA_OF_ASC_NODE":"235.8186","MEAN_ELEMENT_THEORY":"SGP4","OBJECT_ID":"2021-024AK","PERIOD":"95.592","REF_FRAME":"TEME","PERIAPSIS":"546.219","RCS_SIZE":"LARGE","TLE_LINE2":"2 48010  53.0543 235.8186 0001403  72.2503 287.8639 15.06407379 60321","FILE":"3407402","MEAN_ANOMALY":"287.8639","BSTAR":"0.00070290000000","APOAPSIS":"548.163","INCLINATION":"53.0543"},{"RCS_SIZE":"LARGE","TLE_LINE2":"2 48011  53.0547 216.3269 0001863  48.2983 311.8165 15.06409533 60648","REF_FRAME":"TEME","PERIAPSIS":"545.894","OBJECT_ID":"2021-024AL","PERIOD":"95.592","MEAN_ELEMENT_THEORY":"SGP4","BSTAR":"0.00054227000000","APOAPSIS":"548.475","INCLINATION":"53.0547","MEAN_ANOMALY":"311.8165","FILE":"3407402","OBJECT_TYPE":"PAYLOAD","TLE_LINE1":"1 48011U 21024AL  22108.55970700  .00007807  00000-0  54227-3 0  9994","MEAN_MOTION_DOT":"0.00007807","DECAY_DATE":null,"CENTER_NAME":"EARTH","EPOCH":"2022-04-18T13:25:58.684800","MEAN_MOTION":"15.06409533","MEAN_MOTION_DDOT":"0.0000000000000","REV_AT_EPOCH":"6064","ARG_OF_PERICENTER":"48.2983","COUNTRY_CODE":"US","ELEMENT_SET_NO":"999","NORAD_CAT_ID":"48011","SITE":"AFETR","RA_OF_ASC_NODE":"216.3269","ECCENTRICITY":"0.00018630","GP_ID":"201578914","OBJECT_NAME":"STARLINK-2272","SEMIMAJOR_AXIS":"6925.319","TIME_SYSTEM":"UTC","CLASSIFICATION_TYPE":"U","LAUNCH_DATE":"2021-03-24","EPHEMERIS_TYPE":"0"},{"RCS_SIZE":"LARGE","TLE_LINE2":"2 48012  53.0617 178.2308 0002247 359.8822   0.2181 15.40868967 61171","PERIAPSIS":"442.013","REF_FRAME":"TEME","PERIOD":"93.454","OBJECT_ID":"2021-024AM","MEAN_ELEMENT_THEORY":"SGP4","APOAPSIS":"445.078","BSTAR":"0.00001943500000","INCLINATION":"53.0617","MEAN_ANOMALY":"0.2181","FILE":"3406909","TLE_LINE1":"1 48012U 21024AM  22108.49101097  .00000404  00000-0  19435-4 0  9992","OBJECT_TYPE":"PAYLOAD","MEAN_MOTION_DOT":"0.00000404","DECAY_DATE":null,"CENTER_NAME":"EARTH","EPOCH":"2022-04-18T11:47:03.347808","MEAN_MOTION_DDOT":"0.0000000000000","MEAN_MOTION":"15.40868967","ARG_OF_PERICENTER":"359.8822","REV_AT_EPOCH":"6117","ELEMENT_SET_NO":"999","COUNTRY_CODE":"US","SITE":"AFETR","NORAD_CAT_ID":"48012","RA_OF_ASC_NODE":"178.2308","ECCENTRICITY":"0.00022470","OBJECT_NAME":"STARLINK-2216","GP_ID":"201545713","CLASSIFICATION_TYPE":"U","TIME_SYSTEM":"UTC","SEMIMAJOR_AXIS":"6821.680","EPHEMERIS_TYPE":"0","LAUNCH_DATE":"2021-03-24"},{"MEAN_ANOMALY":"311.9553","FILE":"3407402","INCLINATION":"53.0535","APOAPSIS":"548.353","BSTAR":"0.00078179000000","PERIOD":"95.591","OBJECT_ID":"2021-024AN","MEAN_ELEMENT_THEORY":"SGP4","TLE_LINE2":"2 48013  53.0535 200.3303 0001729  48.1583 311.9553 15.06418825 60832","RCS_SIZE":"LARGE","PERIAPSIS":"545.958","REF_FRAME":"TEME","TIME_SYSTEM":"UTC","CLASSIFICATION_TYPE":"U","SEMIMAJOR_AXIS":"6925.291","OBJECT_NAME":"STARLINK-2243","GP_ID":"201580416","EPHEMERIS_TYPE":"0","LAUNCH_DATE":"2021-03-24","RA_OF_ASC_NODE":"200.3303","SITE":"AFETR","NORAD_CAT_ID":"48013","ECCENTRICITY":"0.00017290","MEAN_MOTION_DDOT":"0.0000000000000","MEAN_MOTION":"15.06418825","ELEMENT_SET_NO":"999","COUNTRY_CODE":"US","ARG_OF_PERICENTER":"48.1583","REV_AT_EPOCH":"6083","MEAN_MOTION_DOT":"0.00011388","TLE_LINE1":"1 48013U 21024AN  22108.78133817  .00011388  00000-0  78179-3 0  9992","OBJECT_TYPE":"PAYLOAD","EPOCH":"2022-04-18T18:45:07.617888","CENTER_NAME":"EARTH","DECAY_DATE":null},{"MEAN_ELEMENT_THEORY":"SGP4","PERIOD":"95.644","OBJECT_ID":"2021-024AP","PERIAPSIS":"548.433","REF_FRAME":"TEME","RCS_SIZE":"LARGE","TLE_LINE2":"2 48014  53.0522 164.1383 0001847  42.3200 271.2167 15.05585062  3593","FILE":"3407402","MEAN_ANOMALY":"271.2167","APOAPSIS":"550.992","BSTAR":"-0.00163760000000","INCLINATION":"53.0522","ARG_OF_PERICENTER":"42.3200","REV_AT_EPOCH":"359","ELEMENT_SET_NO":"999","COUNTRY_CODE":"US","MEAN_MOTION_DDOT":"0.0000000000000","MEAN_MOTION":"15.05585062","DECAY_DATE":null,"CENTER_NAME":"EARTH","EPOCH":"2022-04-18T22:00:00.999936","TLE_LINE1":"1 48014U 21024AP  22108.91667824 -.00024061  00000-0 -16376-2 0  9992","OBJECT_TYPE":"PAYLOAD","MEAN_MOTION_DOT":"-0.00024061","EPHEMERIS_TYPE":"0","LAUNCH_DATE":"2021-03-24","OBJECT_NAME":"STARLINK-2283","GP_ID":"201580667","TIME_SYSTEM":"UTC","CLASSIFICATION_TYPE":"U","SEMIMAJOR_AXIS":"6927.847","ECCENTRICITY":"0.00018470","SITE":"AFETR","NORAD_CAT_ID":"48014","RA_OF_ASC_NODE":"164.1383"}];
